[{"OBJECT_NAME":"STARLINK-5992","OBJECT_ID":"2023-058M","EPOCH":"2026-03-09T22:30:47.986560","MEAN_MOTION":15.05647255,"ECCENTRICITY":0.00019866,"INCLINATION":97.6048,"RA_OF_ASC_NODE":71.457,"ARG_OF_PERICENTER":91.4204,"MEAN_ANOMALY":268.725,"EPHEMERIS_TYPE":0,"CLASSIFICATION_TYPE":"U","NORAD_CAT_ID":56328,"ELEMENT_SET_NO":999,"REV_AT_EPOCH":15823,"BSTAR":2.4584758e-5,"MEAN_MOTION_DOT":2.94e-6,"MEAN_MOTION_DDOT":0},{"OBJECT_NAME":"UNKNOWN","OBJECT_ID":"","EPOCH":"2026-03-08T11:45:51.038784","MEAN_MOTION":14.85715368,"ECCENTRICITY":0.0087365,"INCLINATION":97.6779,"RA_OF_ASC_NODE":256.4518,"ARG_OF_PERICENTER":23.5839,"MEAN_ANOMALY":6.4538,"EPHEMERIS_TYPE":0,"CLASSIFICATION_TYPE":"U","NORAD_CAT_ID":81845,"ELEMENT_SET_NO":999,"REV_AT_EPOCH":66225,"BSTAR":0.00036382,"MEAN_MOTION_DOT":3.326e-5,"MEAN_MOTION_DDOT":0}]
